{"type": "FeatureCollection", "features": [{"type": "Feature", "properties": {"norad_id": 32275, "name": "COSMOS 2433 (720)", "group": "glo-ops", "lat": 60.77146809685807, "lon": 88.60221373974265, "alt_km": 19134.863288590284, "timestamp": "2025-12-03T08:58:46.257042+00:00", "meta": {"OBJECT_NAME": "COSMOS 2433 (720)", "OBJECT_ID": "2007-052A", "EPOCH": "2025-12-02T07:06:53.876160", "MEAN_MOTION": 2.13103912, "ECCENTRICITY": 0.00055743, "INCLINATION": 65.6888, "RA_OF_ASC_NODE": 322.5567, "ARG_OF_PERICENTER": 252.1881, "MEAN_ANOMALY": 107.7615, "EPHEMERIS_TYPE": 0, "CLASSIFICATION_TYPE": "U", "NORAD_CAT_ID": 32275, "ELEMENT_SET_NO": 999, "REV_AT_EPOCH": 14086, "BSTAR": 0, "MEAN_MOTION_DOT": -3.2e-07, "MEAN_MOTION_DDOT": 0}, "tle": {"line1": "1 32275U 07052A   25336.29645690 -.00000032  00000+0  00000+0 0  9997", "line2": "2 32275  65.6888 322.5567 0005574 252.1881 107.7615  2.13103912140868"}}, "geometry": {"type": "Point", "coordinates": [88.60221373974265, 60.77146809685807]}}, {"type": "Feature", "properties": {"norad_id": 32276, "name": "COSMOS 2432 (719)", "group": "glo-ops", "lat": 45.369279540612396, "lon": -10.123845964574132, "alt_km": 19129.719620592405, "timestamp": "2025-12-03T08:58:46.257079+00:00", "meta": {"OBJECT_NAME": "COSMOS 2432 (719)", "OBJECT_ID": "2007-052B", "EPOCH": "2025-12-01T01:47:57.960960", "MEAN_MOTION": 2.13103067, "ECCENTRICITY": 0.00112256, "INCLINATION": 65.7054, "RA_OF_ASC_NODE": 322.7218, "ARG_OF_PERICENTER": 311.1678, "MEAN_ANOMALY": 136.2023, "EPHEMERIS_TYPE": 0, "CLASSIFICATION_TYPE": "U", "NORAD_CAT_ID": 32276, "ELEMENT_SET_NO": 999, "REV_AT_EPOCH": 14086, "BSTAR": 0, "MEAN_MOTION_DOT": -2.4e-07, "MEAN_MOTION_DDOT": 0}, "tle": {"line1": "1 32276U 07052B   25335.07497640 -.00000024  00000+0  00000+0 0  9994", "line2": "2 32276  65.7054 322.7218 0011225 311.1678 136.2023  2.13103067140861"}}, "geometry": {"type": "Point", "coordinates": [-10.123845964574132, 45.369279540612396]}}, {"type": "Feature", "properties": {"norad_id": 32393, "name": "COSMOS 2434 (721)", "group": "glo-ops", "lat": -2.485267387452859, "lon": -162.67472028129595, "alt_km": 19127.658928536286, "timestamp": "2025-12-03T08:58:46.257106+00:00", "meta": {"OBJECT_NAME": "COSMOS 2434 (721)", "OBJECT_ID": "2007-065A", "EPOCH": "2025-12-01T06:30:38.524608", "MEAN_MOTION": 2.13101181, "ECCENTRICITY": 0.00043375, "INCLINATION": 64.3147, "RA_OF_ASC_NODE": 198.5905, "ARG_OF_PERICENTER": 70.7489, "MEAN_ANOMALY": 113.3938, "EPHEMERIS_TYPE": 0, "CLASSIFICATION_TYPE": "U", "NORAD_CAT_ID": 32393, "ELEMENT_SET_NO": 999, "REV_AT_EPOCH": 13955, "BSTAR": 0, "MEAN_MOTION_DOT": 1.02e-06, "MEAN_MOTION_DDOT": 0}, "tle": {"line1": "1 32393U 07065A   25335.27127922  .00000102  00000+0  00000+0 0  9999", "line2": "2 32393  64.3147 198.5905 0004337  70.7489 113.3938  2.13101181139555"}}, "geometry": {"type": "Point", "coordinates": [-162.67472028129595, -2.485267387452859]}}, {"type": "Feature", "properties": {"norad_id": 32395, "name": "COSMOS 2436 (723)", "group": "glo-ops", "lat": 43.1541139232227, "lon": -8.207774216125365, "alt_km": 19148.866535907346, "timestamp": "2025-12-03T08:58:46.257128+00:00", "meta": {"OBJECT_NAME": "COSMOS 2436 (723)", "OBJECT_ID": "2007-065C", "EPOCH": "2025-12-01T01:03:25.836192", "MEAN_MOTION": 2.13099978, "ECCENTRICITY": 0.00177119, "INCLINATION": 64.3233, "RA_OF_ASC_NODE": 198.6683, "ARG_OF_PERICENTER": 8.6583, "MEAN_ANOMALY": 134.2889, "EPHEMERIS_TYPE": 0, "CLASSIFICATION_TYPE": "U", "NORAD_CAT_ID": 32395, "ELEMENT_SET_NO": 999, "REV_AT_EPOCH": 13950, "BSTAR": 0, "MEAN_MOTION_DOT": 1e-06, "MEAN_MOTION_DDOT": 0}, "tle": {"line1": "1 32395U 07065C   25335.04404903  .00000100  00000+0  00000+0 0  9991", "line2": "2 32395  64.3233 198.6683 0017711   8.6583 134.2889  2.13099978139504"}}, "geometry": {"type": "Point", "coordinates": [-8.207774216125365, 43.1541139232227]}}, {"type": "Feature", "properties": {"norad_id": 36111, "name": "COSMOS 2456 (730)", "group": "glo-ops", "lat": 22.992969479698438, "lon": -113.79865899195772, "alt_km": 19132.953203331967, "timestamp": "2025-12-03T08:58:46.257155+00:00", "meta": {"OBJECT_NAME": "COSMOS 2456 (730)", "OBJECT_ID": "2009-070A", "EPOCH": "2025-12-01T00:19:15.904128", "MEAN_MOTION": 2.13103433, "ECCENTRICITY": 0.00027486, "INCLINATION": 64.8936, "RA_OF_ASC_NODE": 77.7389, "ARG_OF_PERICENTER": 298.5027, "MEAN_ANOMALY": 204.7984, "EPHEMERIS_TYPE": 0, "CLASSIFICATION_TYPE": "U", "NORAD_CAT_ID": 36111, "ELEMENT_SET_NO": 999, "REV_AT_EPOCH": 12420, "BSTAR": 0, "MEAN_MOTION_DOT": -1.4e-07, "MEAN_MOTION_DDOT": 0}, "tle": {"line1": "1 36111U 09070A   25335.01337852 -.00000014  00000+0  00000+0 0  9999", "line2": "2 36111  64.8936  77.7389 0002748 298.5027 204.7984  2.13103433124208"}}, "geometry": {"type": "Point", "coordinates": [-113.79865899195772, 22.992969479698438]}}, {"type": "Feature", "properties": {"norad_id": 36112, "name": "COSMOS 2457 (733)", "group": "glo-ops", "lat": -61.61457234691238, "lon": 17.409887790939052, "alt_km": 19144.07431643161, "timestamp": "2025-12-03T08:58:46.257180+00:00", "meta": {"OBJECT_NAME": "COSMOS 2457 (733)", "OBJECT_ID": "2009-070B", "EPOCH": "2025-12-03T00:06:14.592384", "MEAN_MOTION": 2.13100787, "ECCENTRICITY": 0.000491, "INCLINATION": 64.8799, "RA_OF_ASC_NODE": 77.5186, "ARG_OF_PERICENTER": 156.2376, "MEAN_ANOMALY": 203.7006, "EPHEMERIS_TYPE": 0, "CLASSIFICATION_TYPE": "U", "NORAD_CAT_ID": 36112, "ELEMENT_SET_NO": 999, "REV_AT_EPOCH": 12424, "BSTAR": 0, "MEAN_MOTION_DOT": -2.5e-07, "MEAN_MOTION_DDOT": 0}, "tle": {"line1": "1 36112U 09070B   25337.00433556 -.00000025  00000+0  00000+0 0  9991", "line2": "2 36112  64.8799  77.5186 0004910 156.2376 203.7006  2.13100787124246"}}, "geometry": {"type": "Point", "coordinates": [17.409887790939052, -61.61457234691238]}}, {"type": "Feature", "properties": {"norad_id": 36402, "name": "COSMOS 2460 (732)", "group": "glo-ops", "lat": -62.46716626351685, "lon": -99.79155836857808, "alt_km": 19129.119817499268, "timestamp": "2025-12-03T08:58:46.257203+00:00", "meta": {"OBJECT_NAME": "COSMOS 2460 (732)", "OBJECT_ID": "2010-007C", "EPOCH": "2025-12-01T05:49:09.827040", "MEAN_MOTION": 2.13106053, "ECCENTRICITY": 0.00028009, "INCLINATION": 65.536, "RA_OF_ASC_NODE": 321.162, "ARG_OF_PERICENTER": 269.9918, "MEAN_ANOMALY": 177.6167, "EPHEMERIS_TYPE": 0, "CLASSIFICATION_TYPE": "U", "NORAD_CAT_ID": 36402, "ELEMENT_SET_NO": 999, "REV_AT_EPOCH": 12251, "BSTAR": 0, "MEAN_MOTION_DOT": -2.6e-07, "MEAN_MOTION_DDOT": 0}, "tle": {"line1": "1 36402U 10007C   25335.24247485 -.00000026  00000+0  00000+0 0  9994", "line2": "2 36402  65.5360 321.1620 0002800 269.9918 177.6167  2.13106053122518"}}, "geometry": {"type": "Point", "coordinates": [-99.79155836857808, -62.46716626351685]}}, {"type": "Feature", "properties": {"norad_id": 37867, "name": "COSMOS 2476 (744)", "group": "glo-ops", "lat": 53.827768014579696, "lon": 118.73321644673044, "alt_km": 19184.17396508981, "timestamp": "2025-12-03T08:58:46.257225+00:00", "meta": {"OBJECT_NAME": "COSMOS 2476 (744)", "OBJECT_ID": "2011-064A", "EPOCH": "2025-12-02T19:57:36.313920", "MEAN_MOTION": 2.13101261, "ECCENTRICITY": 0.002396, "INCLINATION": 65.1573, "RA_OF_ASC_NODE": 79.5068, "ARG_OF_PERICENTER": 233.4935, "MEAN_ANOMALY": 133.1658, "EPHEMERIS_TYPE": 0, "CLASSIFICATION_TYPE": "U", "NORAD_CAT_ID": 37867, "ELEMENT_SET_NO": 999, "REV_AT_EPOCH": 10958, "BSTAR": 0, "MEAN_MOTION_DOT": -2.2e-07, "MEAN_MOTION_DDOT": 0}, "tle": {"line1": "1 37867U 11064A   25336.83167030 -.00000022  00000+0  00000+0 0  9993", "line2": "2 37867  65.1573  79.5068 0023960 233.4935 133.1658  2.13101261109581"}}, "geometry": {"type": "Point", "coordinates": [118.73321644673044, 53.827768014579696]}}, {"type": "Feature", "properties": {"norad_id": 37868, "name": "COSMOS 2477 (745)", "group": "glo-ops", "lat": -54.528342281217654, "lon": -59.97037763427098, "alt_km": 19083.230725583664, "timestamp": "2025-12-03T08:58:46.257255+00:00", "meta": {"OBJECT_NAME": "COSMOS 2477 (745)", "OBJECT_ID": "2011-064B", "EPOCH": "2025-12-01T05:34:43.743072", "MEAN_MOTION": 2.1310269, "ECCENTRICITY": 0.00209845, "INCLINATION": 65.1625, "RA_OF_ASC_NODE": 79.6383, "ARG_OF_PERICENTER": 233.8301, "MEAN_ANOMALY": 166.8442, "EPHEMERIS_TYPE": 0, "CLASSIFICATION_TYPE": "U", "NORAD_CAT_ID": 37868, "ELEMENT_SET_NO": 999, "REV_AT_EPOCH": 10954, "BSTAR": 0, "MEAN_MOTION_DOT": -1.2e-07, "MEAN_MOTION_DDOT": 0}, "tle": {"line1": "1 37868U 11064B   25335.23245073 -.00000012  00000+0  00000+0 0  9990", "line2": "2 37868  65.1625  79.6383 0020984 233.8301 166.8442  2.13102690109542"}}, "geometry": {"type": "Point", "coordinates": [-59.97037763427098, -54.528342281217654]}}, {"type": "Feature", "properties": {"norad_id": 37869, "name": "COSMOS 2475 (743)", "group": "glo-ops", "lat": -17.675945130316506, "lon": -91.94323481487454, "alt_km": 19088.74641061735, "timestamp": "2025-12-03T08:58:46.257275+00:00", "meta": {"OBJECT_NAME": "COSMOS 2475 (743)", "OBJECT_ID": "2011-064C", "EPOCH": "2025-12-01T05:41:50.555616", "MEAN_MOTION": 2.13101369, "ECCENTRICITY": 0.00260135, "INCLINATION": 65.1695, "RA_OF_ASC_NODE": 79.658, "ARG_OF_PERICENTER": 248.1873, "MEAN_ANOMALY": 112.2788, "EPHEMERIS_TYPE": 0, "CLASSIFICATION_TYPE": "U", "NORAD_CAT_ID": 37869, "ELEMENT_SET_NO": 999, "REV_AT_EPOCH": 10955, "BSTAR": 0, "MEAN_MOTION_DOT": -1.2e-07, "MEAN_MOTION_DDOT": 0}, "tle": {"line1": "1 37869U 11064C   25335.23739069 -.00000012  00000+0  00000+0 0  9994", "line2": "2 37869  65.1695  79.6580 0026013 248.1873 112.2788  2.13101369109552"}}, "geometry": {"type": "Point", "coordinates": [-91.94323481487454, -17.675945130316506]}}]}